
    {
        "ARG_OF_PERICENTER": 142.8921,
        "BSTAR": 0.00074161,
        "CLASSIFICATION_TYPE": "U",
        "ECCENTRICITY": 0.0006885,
        "ELEMENT_SET_NO": 999,
        "EPHEMERIS_TYPE": 0,
        "EPOCH": "2026-05-04T03:39:07.966656",
        "INCLINATION": 97.9942,
        "MEAN_ANOMALY": 217.2806,
        "MEAN_MOTION": 15.50779877,
        "MEAN_MOTION_DDOT": 0,
        "MEAN_MOTION_DOT": 0.00042826,
        "NORAD_CAT_ID": 41849,
        "OBJECT_ID": "2016-067B",
        "OBJECT_NAME": "RAVAN",
        "RA_OF_ASC_NODE": 8.7774,
        "REV_AT_EPOCH": 52086
    },
    {
        "ARG_OF_PERICENTER": 69.0637,
        "BSTAR": 0.00024499,
        "CLASSIFICATION_TYPE": "U",
        "ECCENTRICITY": 0.0002146,
        "ELEMENT_SET_NO": 999,
        "EPHEMERIS_TYPE": 0,
        "EPOCH": "2026-05-04T03:36:37.526976",
        "INCLINATION": 98.0726,
        "MEAN_ANOMALY": 291.0825,
        "MEAN_MOTION": 15.19250259,
        "MEAN_MOTION_DDOT": 0,
        "MEAN_MOTION_DOT": 5.086e-05,
        "NORAD_CAT_ID": 41850,
        "OBJECT_ID": "2016-067C",
        "OBJECT_NAME": "CELTEE 1",
        "RA_OF_ASC_NODE": 347.7164,
        "REV_AT_EPOCH": 51919
    },
    {
        "ARG_OF_PERICENTER": 266.501,
        "BSTAR": 0.00016077,
        "CLASSIFICATION_TYPE": "U",
        "ECCENTRICITY": 0.0014299,
        "ELEMENT_SET_NO": 999,
        "EPHEMERIS_TYPE": 0,
        "EPOCH": "2026-05-04T03:09:38.739168",
        "INCLINATION": 98.0742,
        "MEAN_ANOMALY": 93.4581,
        "MEAN_MOTION": 15.09472926,
        "MEAN_MOTION_DDOT": 0,
        "MEAN_MOTION_DOT": 2.508e-05,
        "NORAD_CAT_ID": 41851,
        "OBJECT_ID": "2016-067D",
        "OBJECT_NAME": "OPTICUBE 04",
        "RA_OF_ASC_NODE": 334.1117,
        "REV_AT_EPOCH": 51852
    },
    {
        "ARG_OF_PERICENTER": 300.6354,
        "BSTAR": 0.00033913,
        "CLASSIFICATION_TYPE": "U",
        "ECCENTRICITY": 0.0002014,
        "ELEMENT_SET_NO": 999,
        "EPHEMERIS_TYPE": 0,
        "EPOCH": "2026-05-04T02:25:26.654016",
        "INCLINATION": 98.0737,
        "MEAN_ANOMALY": 59.4682,
        "MEAN_MOTION": 15.23786779,
        "MEAN_MOTION_DDOT": 0,
        "MEAN_MOTION_DOT": 8.084e-05,
        "NORAD_CAT_ID": 41852,
        "OBJECT_ID": "2016-067E",
        "OBJECT_NAME": "AEROCUBE 8D",
        "RA_OF_ASC_NODE": 350.9273,
        "REV_AT_EPOCH": 51935
    },
    {
        "ARG_OF_PERICENTER": 197.5722,
        "BSTAR": 0.00028672,
        "CLASSIFICATION_TYPE": "U",
        "ECCENTRICITY": 0.0004718,
        "ELEMENT_SET_NO": 999,
        "EPHEMERIS_TYPE": 0,
        "EPOCH": "2026-05-04T03:11:28.364352",
        "INCLINATION": 98.0608,
        "MEAN_ANOMALY": 162.5351,
        "MEAN_MOTION": 15.24022413,
        "MEAN_MOTION_DDOT": 0,
        "MEAN_MOTION_DOT": 6.871e-05,
        "NORAD_CAT_ID": 41853,
        "OBJECT_ID": "2016-067F",
        "OBJECT_NAME": "AEROCUBE 8C",
        "RA_OF_ASC_NODE": 348.2472,
        "REV_AT_EPOCH": 51935
    },
    {
        "ARG_OF_PERICENTER": 262.1281,
        "BSTAR": 0.00024095,
        "CLASSIFICATION_TYPE": "U",
        "ECCENTRICITY": 0.001182,
        "ELEMENT_SET_NO": 999,
        "EPHEMERIS_TYPE": 0,
        "EPOCH": "2026-05-04T00:20:51.559296",
        "INCLINATION": 97.4016,
        "MEAN_ANOMALY": 97.8605,
        "MEAN_MOTION": 15.06012455,
        "MEAN_MOTION_DDOT": 0,
        "MEAN_MOTION_DOT": 3.458e-05,
        "NORAD_CAT_ID": 42846,
        "OBJECT_ID": "2017-042X",
        "OBJECT_NAME": "CORVUS BC2",
        "RA_OF_ASC_NODE": 287.1018,
        "REV_AT_EPOCH": 48041
    },
    {
        "ARG_OF_PERICENTER": 236.3009,
        "BSTAR": 0.00026541,
        "CLASSIFICATION_TYPE": "U",
        "ECCENTRICITY": 0.0010917,
        "ELEMENT_SET_NO": 999,
        "EPHEMERIS_TYPE": 0,
        "EPOCH": "2026-05-04T00:20:19.211136",
        "INCLINATION": 97.4054,
        "MEAN_ANOMALY": 123.7178,
        "MEAN_MOTION": 15.06180594,
        "MEAN_MOTION_DDOT": 0,
        "MEAN_MOTION_DOT": 3.832e-05,
        "NORAD_CAT_ID": 42847,
        "OBJECT_ID": "2017-042Y",
        "OBJECT_NAME": "CORVUS BC1",
        "RA_OF_ASC_NODE": 287.8863,
        "REV_AT_EPOCH": 48044
    },
    {
        "ARG_OF_PERICENTER": 70.1041,
        "BSTAR": 0.00061403,
        "CLASSIFICATION_TYPE": "U",
        "ECCENTRICITY": 0.0113141,
        "ELEMENT_SET_NO": 999,
        "EPHEMERIS_TYPE": 0,
        "EPOCH": "2026-05-04T03:11:21.669216",
        "INCLINATION": 97.4687,
        "MEAN_ANOMALY": 291.2349,
        "MEAN_MOTION": 15.30218898,
        "MEAN_MOTION_DDOT": 0,
        "MEAN_MOTION_DOT": 0.00021826,
        "NORAD_CAT_ID": 43016,
        "OBJECT_ID": "2017-073D",
        "OBJECT_NAME": "MAKERSAT 0",
        "RA_OF_ASC_NODE": 6.3593,
        "REV_AT_EPOCH": 45972
    },
    {
        "ARG_OF_PERICENTER": 93.6742,
        "BSTAR": 0.00026692,
        "CLASSIFICATION_TYPE": "U",
        "ECCENTRICITY": 0.0010531,
        "ELEMENT_SET_NO": 999,
        "EPHEMERIS_TYPE": 0,
        "EPOCH": "2026-05-04T02:35:38.829120",
        "INCLINATION": 97.4284,
        "MEAN_ANOMALY": 266.5694,
        "MEAN_MOTION": 15.14145256,
        "MEAN_MOTION_DDOT": 0,
        "MEAN_MOTION_DOT": 4.807e-05,
        "NORAD_CAT_ID": 43759,
        "OBJECT_ID": "2018-099B",
        "OBJECT_NAME": "SIRION PATHFINDER-2",
        "RA_OF_ASC_NODE": 174.2185,
        "REV_AT_EPOCH": 40595
    },
    {
        "ARG_OF_PERICENTER": 144.7277,
        "BSTAR": 0.00027681,
        "CLASSIFICATION_TYPE": "U",
        "ECCENTRICITY": 0.0009405,
        "ELEMENT_SET_NO": 999,
        "EPHEMERIS_TYPE": 0,
        "EPOCH": "2026-05-04T01:19:51.490848",
        "INCLINATION": 97.4102,
        "MEAN_ANOMALY": 215.4578,
        "MEAN_MOTION": 15.12138598,
        "MEAN_MOTION_DDOT": 0,
        "MEAN_MOTION_DOT": 4.712e-05,
        "NORAD_CAT_ID": 43767,
        "OBJECT_ID": "2018-099K",
        "OBJECT_NAME": "CORVUS BC4",
        "RA_OF_ASC_NODE": 168.331,
        "REV_AT_EPOCH": 40573
    },
    {
        "ARG_OF_PERICENTER": 305.5853,
        "BSTAR": 0.00020063,
        "CLASSIFICATION_TYPE": "U",
        "ECCENTRICITY": 0.0010629,
        "ELEMENT_SET_NO": 999,
        "EPHEMERIS_TYPE": 0,
        "EPOCH": "2026-05-04T00:29:00.369888",
        "INCLINATION": 97.8149,
        "MEAN_ANOMALY": 54.4381,
        "MEAN_MOTION": 15.04477043,
        "MEAN_MOTION_DDOT": 0,
        "MEAN_MOTION_DOT": 2.746e-05,
        "NORAD_CAT_ID": 45727,
        "OBJECT_ID": "2020-037E",
        "OBJECT_NAME": "M2 PATHFINDER",
        "RA_OF_ASC_NODE": 314.7578,
        "REV_AT_EPOCH": 31885
    },
    {
        "ARG_OF_PERICENTER": 113.6626,
        "BSTAR": 0.00043085,
        "CLASSIFICATION_TYPE": "U",
        "ECCENTRICITY": 0.0007603,
        "ELEMENT_SET_NO": 999,
        "EPHEMERIS_TYPE": 0,
        "EPOCH": "2026-05-03T21:35:07.233792",
        "INCLINATION": 97.862,
        "MEAN_ANOMALY": 246.5419,
        "MEAN_MOTION": 15.42408812,
        "MEAN_MOTION_DDOT": 0,
        "MEAN_MOTION_DOT": 0.00018561,
        "NORAD_CAT_ID": 46504,
        "OBJECT_ID": "2020-068U",
        "OBJECT_NAME": "NETSAT-4",
        "RA_OF_ASC_NODE": 128.6345,
        "REV_AT_EPOCH": 30894
    },
    {
        "ARG_OF_PERICENTER": 126.3095,
        "BSTAR": 0.00045021,
        "CLASSIFICATION_TYPE": "U",
        "ECCENTRICITY": 0.0007194,
        "ELEMENT_SET_NO": 999,
        "EPHEMERIS_TYPE": 0,
        "EPOCH": "2026-05-03T22:27:25.248096",
        "INCLINATION": 97.8667,
        "MEAN_ANOMALY": 233.8816,
        "MEAN_MOTION": 15.41170787,
        "MEAN_MOTION_DDOT": 0,
        "MEAN_MOTION_DOT": 0.00018614,
        "NORAD_CAT_ID": 46505,
        "OBJECT_ID": "2020-068V",
        "OBJECT_NAME": "NETSAT-3",
        "RA_OF_ASC_NODE": 126.9487,
        "REV_AT_EPOCH": 30886
    }