RAVAN                   
1 41849U 16067B   26124.15217554  .00042826  00000+0  74161-3 0  9994
2 41849  97.9942   8.7774 0006885 142.8921 217.2806 15.50779877520868
CELTEE 1                
1 41850U 16067C   26124.15043434  .00005086  00000+0  24499-3 0  9996
2 41850  98.0726 347.7164 0002146  69.0637 291.0825 15.19250259519199
OPTICUBE 04             
1 41851U 16067D   26124.13169837  .00002508  00000+0  16077-3 0  9990
2 41851  98.0742 334.1117 0014299 266.5010  93.4581 15.09472926518522
AEROCUBE 8D             
1 41852U 16067E   26124.10100294  .00008084  00000+0  33913-3 0  9993
2 41852  98.0737 350.9273 0002014 300.6354  59.4682 15.23786779519355
AEROCUBE 8C             
1 41853U 16067F   26124.13296718  .00006871  00000+0  28672-3 0  9992
2 41853  98.0608 348.2472 0004718 197.5722 162.5351 15.24022413519357
CORVUS BC2              
1 42846U 17042X   26124.01448564  .00003458  00000+0  24095-3 0  9997
2 42846  97.4016 287.1018 0011820 262.1281  97.8605 15.06012455480415
CORVUS BC1              
1 42847U 17042Y   26124.01411124  .00003832  00000+0  26541-3 0  9994
2 42847  97.4054 287.8863 0010917 236.3009 123.7178 15.06180594480447
MAKERSAT 0              
1 43016U 17073D   26124.13288969  .00021826  00000+0  61403-3 0  9998
2 43016  97.4687   6.3593 0113141  70.1041 291.2349 15.30218898459729
SIRION PATHFINDER-2     
1 43759U 18099B   26124.10808830  .00004807  00000+0  26692-3 0  9994
2 43759  97.4284 174.2185 0010531  93.6742 266.5694 15.14145256405958
CORVUS BC4              
1 43767U 18099K   26124.05545707  .00004712  00000+0  27681-3 0  9992
2 43767  97.4102 168.3310 0009405 144.7277 215.4578 15.12138598405738
M2 PATHFINDER           
1 45727U 20037E   26124.02014317  .00002746  00000+0  20063-3 0  9992
2 45727  97.8149 314.7578 0010629 305.5853  54.4381 15.04477043318852
NETSAT-4                
1 46504U 20068U   26123.89938928  .00018561  00000+0  43085-3 0  9998
2 46504  97.8620 128.6345 0007603 113.6626 246.5419 15.42408812308943
NETSAT-3                
1 46505U 20068V   26123.93570889  .00018614  00000+0  45021-3 0  9993
2 46505  97.8667 126.9487 0007194 126.3095 233.8816 15.41170787308866
